CCSDS_OMM_VERS = 2.0
CREATION_DATE  = 
ORIGINATOR     = 

OBJECT_NAME    = STARLINK-36799
OBJECT_ID      = 2026-037AC
CENTER_NAME    = EARTH
REF_FRAME      = TEME
TIME_SYSTEM    = UTC
MEAN_ELEMENT_THEORY = SGP/SGP4

EPOCH          = 2026-03-18T20:00:01.999872
MEAN_MOTION    = 15.78557853
ECCENTRICITY   = .00017416
INCLINATION    = 42.9993
RA_OF_ASC_NODE = 142.2737
ARG_OF_PERICENTER = 274.2859
MEAN_ANOMALY   = 42.4079

EPHEMERIS_TYPE = 0
CLASSIFICATION_TYPE = U
NORAD_CAT_ID   = 67958
ELEMENT_SET_NO = 999
REV_AT_EPOCH   = 466
BSTAR          = -.12479457E-1
MEAN_MOTION_DOT = -.1946281E-1
MEAN_MOTION_DDOT = 0

CCSDS_OMM_VERS = 2.0
CREATION_DATE  = 
ORIGINATOR     = 

OBJECT_NAME    = STARLINK-36834
OBJECT_ID      = 2026-037AD
CENTER_NAME    = EARTH
REF_FRAME      = TEME
TIME_SYSTEM    = UTC
MEAN_ELEMENT_THEORY = SGP/SGP4

EPOCH          = 2026-03-18T20:00:01.999872
MEAN_MOTION    = 15.69045861
ECCENTRICITY   = .00014648
INCLINATION    = 42.9995
RA_OF_ASC_NODE = 142.4212
ARG_OF_PERICENTER = 268.7602
MEAN_ANOMALY   = 348.8876

EPHEMERIS_TYPE = 0
CLASSIFICATION_TYPE = U
NORAD_CAT_ID   = 67959
ELEMENT_SET_NO = 999
REV_AT_EPOCH   = 466
BSTAR          = -.18873148E-1
MEAN_MOTION_DOT = -.1982666E-1
MEAN_MOTION_DDOT = 0

CCSDS_OMM_VERS = 2.0
CREATION_DATE  = 
ORIGINATOR     = 

OBJECT_NAME    = STARLINK-36841
OBJECT_ID      = 2026-037AE
CENTER_NAME    = EARTH
REF_FRAME      = TEME
TIME_SYSTEM    = UTC
MEAN_ELEMENT_THEORY = SGP/SGP4

EPOCH          = 2026-03-16T12:04:37.020864
MEAN_MOTION    = 15.82830893
ECCENTRICITY   = .00018947
INCLINATION    = 42.9981
RA_OF_ASC_NODE = 156.5268
ARG_OF_PERICENTER = 354.5035
MEAN_ANOMALY   = 5.5816

EPHEMERIS_TYPE = 0
CLASSIFICATION_TYPE = U
NORAD_CAT_ID   = 67960
ELEMENT_SET_NO = 999
REV_AT_EPOCH   = 433
BSTAR          = .27816077E-2
MEAN_MOTION_DOT = .656337E-2
MEAN_MOTION_DDOT = 0

CCSDS_OMM_VERS = 2.0
CREATION_DATE  = 
ORIGINATOR     = 

OBJECT_NAME    = STARLINK-36912
OBJECT_ID      = 2026-038A
CENTER_NAME    = EARTH
REF_FRAME      = TEME
TIME_SYSTEM    = UTC
MEAN_ELEMENT_THEORY = SGP/SGP4

EPOCH          = 2026-03-18T20:00:01.999872
MEAN_MOTION    = 15.66863576
ECCENTRICITY   = .00016518
INCLINATION    = 97.2855
RA_OF_ASC_NODE = 88.5794
ARG_OF_PERICENTER = 73.9471
MEAN_ANOMALY   = 348.2436

EPHEMERIS_TYPE = 0
CLASSIFICATION_TYPE = U
NORAD_CAT_ID   = 67961
ELEMENT_SET_NO = 999
REV_AT_EPOCH   = 467
BSTAR          = -.25117627E-1
MEAN_MOTION_DOT = -.2287924E-1
MEAN_MOTION_DDOT = 0

CCSDS_OMM_VERS = 2.0
CREATION_DATE  = 
ORIGINATOR     = 

OBJECT_NAME    = STARLINK-36881
OBJECT_ID      = 2026-038B
CENTER_NAME    = EARTH
REF_FRAME      = TEME
TIME_SYSTEM    = UTC
MEAN_ELEMENT_THEORY = SGP/SGP4

EPOCH          = 2026-03-18T20:00:01.999872
MEAN_MOTION    = 15.67236460
ECCENTRICITY   = .00016484
INCLINATION    = 97.2858
RA_OF_ASC_NODE = 88.5837
ARG_OF_PERICENTER = 75.0952
MEAN_ANOMALY   = 355.2626

EPHEMERIS_TYPE = 0
CLASSIFICATION_TYPE = U
NORAD_CAT_ID   = 67962
ELEMENT_SET_NO = 999
REV_AT_EPOCH   = 467
BSTAR          = -.24748229E-1
MEAN_MOTION_DOT = -.2288695E-1
MEAN_MOTION_DDOT = 0

CCSDS_OMM_VERS = 2.0
CREATION_DATE  = 
ORIGINATOR     = 

OBJECT_NAME    = STARLINK-36357
OBJECT_ID      = 2026-038C
CENTER_NAME    = EARTH
REF_FRAME      = TEME
TIME_SYSTEM    = UTC
MEAN_ELEMENT_THEORY = SGP/SGP4

EPOCH          = 2026-03-18T20:00:01.999872
MEAN_MOTION    = 15.61943497
ECCENTRICITY   = .0001636
INCLINATION    = 97.2849
RA_OF_ASC_NODE = 88.5723
ARG_OF_PERICENTER = 75.5479
MEAN_ANOMALY   = 326.9320

EPHEMERIS_TYPE = 0
CLASSIFICATION_TYPE = U
NORAD_CAT_ID   = 67963
ELEMENT_SET_NO = 999
REV_AT_EPOCH   = 467
BSTAR          = -.30408235E-1
MEAN_MOTION_DOT = -.2326993E-1
MEAN_MOTION_DDOT = 0

CCSDS_OMM_VERS = 2.0
CREATION_DATE  = 
ORIGINATOR     = 

OBJECT_NAME    = STARLINK-36349
OBJECT_ID      = 2026-038D
CENTER_NAME    = EARTH
REF_FRAME      = TEME
TIME_SYSTEM    = UTC
MEAN_ELEMENT_THEORY = SGP/SGP4

EPOCH          = 2026-03-18T20:00:01.999872
MEAN_MOTION    = 15.61985508
ECCENTRICITY   = .00014542
INCLINATION    = 97.2848
RA_OF_ASC_NODE = 88.5690
ARG_OF_PERICENTER = 74.5705
MEAN_ANOMALY   = 320.3325

EPHEMERIS_TYPE = 0
CLASSIFICATION_TYPE = U
NORAD_CAT_ID   = 67964
ELEMENT_SET_NO = 999
REV_AT_EPOCH   = 467
BSTAR          = -.30273063E-1
MEAN_MOTION_DOT = -.232107E-1
MEAN_MOTION_DDOT = 0

CCSDS_OMM_VERS = 2.0
CREATION_DATE  = 
ORIGINATOR     = 

OBJECT_NAME    = STARLINK-36806
OBJECT_ID      = 2026-038E
CENTER_NAME    = EARTH
REF_FRAME      = TEME
TIME_SYSTEM    = UTC
MEAN_ELEMENT_THEORY = SGP/SGP4

EPOCH          = 2026-03-18T20:00:01.999872
MEAN_MOTION    = 15.68145895
ECCENTRICITY   = .00018357
INCLINATION    = 97.2855
RA_OF_ASC_NODE = 88.5929
ARG_OF_PERICENTER = 71.4879
MEAN_ANOMALY   = 21.7076

EPHEMERIS_TYPE = 0
CLASSIFICATION_TYPE = U
NORAD_CAT_ID   = 67965
ELEMENT_SET_NO = 999
REV_AT_EPOCH   = 467
BSTAR          = -.23819176E-1
MEAN_MOTION_DOT = -.2287009E-1
MEAN_MOTION_DDOT = 0

CCSDS_OMM_VERS = 2.0
CREATION_DATE  = 
ORIGINATOR     = 

OBJECT_NAME    = STARLINK-36820
OBJECT_ID      = 2026-038F
CENTER_NAME    = EARTH
REF_FRAME      = TEME
TIME_SYSTEM    = UTC
MEAN_ELEMENT_THEORY = SGP/SGP4

EPOCH          = 2026-03-18T20:00:01.999872
MEAN_MOTION    = 15.68515385
ECCENTRICITY   = .00017089
INCLINATION    = 97.2856
RA_OF_ASC_NODE = 88.5963
ARG_OF_PERICENTER = 73.0749
MEAN_ANOMALY   = 27.9460

EPHEMERIS_TYPE = 0
CLASSIFICATION_TYPE = U
NORAD_CAT_ID   = 67966
ELEMENT_SET_NO = 999
REV_AT_EPOCH   = 467
BSTAR          = -.23371015E-1
MEAN_MOTION_DOT = -.2279499E-1
MEAN_MOTION_DDOT = 0

CCSDS_OMM_VERS = 2.0
CREATION_DATE  = 
ORIGINATOR     = 

OBJECT_NAME    = STARLINK-36819
OBJECT_ID      = 2026-038G
CENTER_NAME    = EARTH
REF_FRAME      = TEME
TIME_SYSTEM    = UTC
MEAN_ELEMENT_THEORY = SGP/SGP4

EPOCH          = 2026-03-18T20:00:01.999872
MEAN_MOTION    = 15.49127427
ECCENTRICITY   = .00013613
INCLINATION    = 97.2845
RA_OF_ASC_NODE = 88.4947
ARG_OF_PERICENTER = 73.9044
MEAN_ANOMALY   = 143.3981

EPHEMERIS_TYPE = 0
CLASSIFICATION_TYPE = U
NORAD_CAT_ID   = 67967
ELEMENT_SET_NO = 999
REV_AT_EPOCH   = 467
BSTAR          = .15121723E-2
MEAN_MOTION_DOT = .82844E-3
MEAN_MOTION_DDOT = 0

CCSDS_OMM_VERS = 2.0
CREATION_DATE  = 
ORIGINATOR     = 

OBJECT_NAME    = STARLINK-36812
OBJECT_ID      = 2026-038H
CENTER_NAME    = EARTH
REF_FRAME      = TEME
TIME_SYSTEM    = UTC
MEAN_ELEMENT_THEORY = SGP/SGP4

EPOCH          = 2026-03-18T20:00:01.999872
MEAN_MOTION    = 15.68909865
ECCENTRICITY   = .00018602
INCLINATION    = 97.2854
RA_OF_ASC_NODE = 88.6014
ARG_OF_PERICENTER = 71.7308
MEAN_ANOMALY   = 43.1069

EPHEMERIS_TYPE = 0
CLASSIFICATION_TYPE = U
NORAD_CAT_ID   = 67968
ELEMENT_SET_NO = 999
REV_AT_EPOCH   = 467
BSTAR          = -.22977214E-1
MEAN_MOTION_DOT = -.2278348E-1
MEAN_MOTION_DDOT = 0

CCSDS_OMM_VERS = 2.0
CREATION_DATE  = 
ORIGINATOR     = 

OBJECT_NAME    = STARLINK-36709
OBJECT_ID      = 2026-038J
CENTER_NAME    = EARTH
REF_FRAME      = TEME
TIME_SYSTEM    = UTC
MEAN_ELEMENT_THEORY = SGP/SGP4

EPOCH          = 2026-03-18T20:00:01.999872
MEAN_MOTION    = 15.68681692
ECCENTRICITY   = .00018811
INCLINATION    = 97.2854
RA_OF_ASC_NODE = 88.6069
ARG_OF_PERICENTER = 69.2187
MEAN_ANOMALY   = 58.5569

EPHEMERIS_TYPE = 0
CLASSIFICATION_TYPE = U
NORAD_CAT_ID   = 67969
ELEMENT_SET_NO = 999
REV_AT_EPOCH   = 467
BSTAR          = -.23305782E-1
MEAN_MOTION_DOT = -.2287697E-1
MEAN_MOTION_DDOT = 0

