STARLINK-36799          
1 67958U 26037AC  26077.83335648 -.01946281  00000+0 -12479-1 0  9991
2 67958  42.9993 142.2737 0001741 274.2859  42.4079 15.78557853  4665
STARLINK-36834          
1 67959U 26037AD  26077.83335648 -.01982666  00000+0 -18873-1 0  9993
2 67959  42.9995 142.4212 0001464 268.7602 348.8876 15.69045861  4663
STARLINK-36841          
1 67960U 26037AE  26075.50320626  .00656337  00000+0  27816-2 0  9995
2 67960  42.9981 156.5268 0001894 354.5035   5.5816 15.82830893  4335
STARLINK-36912          
1 67961U 26038A   26077.83335648 -.02287924  00000+0 -25118-1 0  9993
2 67961  97.2855  88.5794 0001651  73.9471 348.2436 15.66863576  4672
STARLINK-36881          
1 67962U 26038B   26077.83335648 -.02288695  00000+0 -24748-1 0  9998
2 67962  97.2858  88.5837 0001648  75.0952 355.2626 15.67236460  4673
STARLINK-36357          
1 67963U 26038C   26077.83335648 -.02326993  00000+0 -30408-1 0  9993
2 67963  97.2849  88.5723 0001636  75.5479 326.9320 15.61943497  4679
STARLINK-36349          
1 67964U 26038D   26077.83335648 -.02321070  00000+0 -30273-1 0  9995
2 67964  97.2848  88.5690 0001454  74.5705 320.3325 15.61985508  4673
STARLINK-36806          
1 67965U 26038E   26077.83335648 -.02287009  00000+0 -23819-1 0  9997
2 67965  97.2855  88.5929 0001835  71.4879  21.7076 15.68145895  4677
STARLINK-36820          
1 67966U 26038F   26077.83335648 -.02279499  00000+0 -23371-1 0  9995
2 67966  97.2856  88.5963 0001708  73.0749  27.9460 15.68515385  4670
STARLINK-36819          
1 67967U 26038G   26077.83335648  .00082844  00000+0  15122-2 0  9994
2 67967  97.2845  88.4947 0001361  73.9044 143.3981 15.49127427  4678
STARLINK-36812          
1 67968U 26038H   26077.83335648 -.02278348  00000+0 -22977-1 0  9990
2 67968  97.2854  88.6014 0001860  71.7308  43.1069 15.68909865  4678
STARLINK-36709          
1 67969U 26038J   26077.83335648 -.02287697  00000+0 -23306-1 0  9995
2 67969  97.2854  88.6069 0001881  69.2187  58.5569 15.68681692  4679
